{"type": "FeatureCollection", "features": [ {"type": "Feature", "properties": {"norad_id": 66356, "name": "STARLINK-35851", "group": "last-30-days", "lat": -18.554585135617334, "lon": 149.44065693162474, "alt_km": 398.19029992898413, "timestamp": "2025-12-04T17:48:38.961816+00:00", "meta": {"OBJECT_NAME": "STARLINK-35851", "OBJECT_ID": "2025-254J", "EPOCH": "2025-12-04T08:00:01.999872", "MEAN_MOTION": 15.59328622, "ECCENTRICITY": 0.00013989, "INCLINATION": 53.1591, "RA_OF_ASC_NODE": 316.847, "ARG_OF_PERICENTER": 74.9743, "MEAN_ANOMALY": 353.7534, "EPHEMERIS_TYPE": 0, "CLASSIFICATION_TYPE": "U", "NORAD_CAT_ID": 66356, "ELEMENT_SET_NO": 999, "REV_AT_EPOCH": 557, "BSTAR": -0.028306912, "MEAN_MOTION_DOT": -0.01994623, "MEAN_MOTION_DDOT": 0}, "tle": {"line1": "1 66356U 25254J   25338.33335648 -.01994623  00000+0 -28307-1 0  9996", "line2": "2 66356  53.1591 316.8470 0001398  74.9743 353.7534 15.59328622  5576"}}, "geometry": {"type": "Point", "coordinates": [149.44065693162474, -18.554585135617334]}}, {"type": "Feature", "properties": {"norad_id": 66357, "name": "STARLINK-35817", "group": "last-30-days", "lat": -20.032930311467087, "lon": 150.72616538878788, "alt_km": 398.3124081474389, "timestamp": "2025-12-04T17:48:38.961827+00:00", "meta": {"OBJECT_NAME": "STARLINK-35817", "OBJECT_ID": "2025-254K", "EPOCH": "2025-12-04T08:00:01.999872", "MEAN_MOTION": 15.59337912, "ECCENTRICITY": 0.00012939, "INCLINATION": 53.1592, "RA_OF_ASC_NODE": 316.843, "ARG_OF_PERICENTER": 73.3802, "MEAN_ANOMALY": 357.2579, "EPHEMERIS_TYPE": 0, "CLASSIFICATION_TYPE": "U", "NORAD_CAT_ID": 66357, "ELEMENT_SET_NO": 999, "REV_AT_EPOCH": 557, "BSTAR": -0.028439035, "MEAN_MOTION_DOT": -0.02003323, "MEAN_MOTION_DDOT": 0}, "tle": {"line1": "1 66357U 25254K   25338.33335648 -.02003323  00000+0 -28439-1 0  9992", "line2": "2 66357  53.1592 316.8430 0001293  73.3802 357.2579 15.59337912  5577"}}, "geometry": {"type": "Point", "coordinates": [150.72616538878788, -20.032930311467087]}}, {"type": "Feature", "properties": {"norad_id": 66358, "name": "STARLINK-35807", "group": "last-30-days", "lat": -21.5019654940116, "lon": 152.03584424977961, "alt_km": 398.51000850384935, "timestamp": "2025-12-04T17:48:38.961837+00:00", "meta": {"OBJECT_NAME": "STARLINK-35807", "OBJECT_ID": "2025-254L", "EPOCH": "2025-12-04T08:00:01.999872", "MEAN_MOTION": 15.59337453, "ECCENTRICITY": 0.00013451, "INCLINATION": 53.1592, "RA_OF_ASC_NODE": 316.8385, "ARG_OF_PERICENTER": 71.3539, "MEAN_ANOMALY": 1.2009, "EPHEMERIS_TYPE": 0, "CLASSIFICATION_TYPE": "U", "NORAD_CAT_ID": 66358, "ELEMENT_SET_NO": 999, "REV_AT_EPOCH": 557, "BSTAR": -0.028426366, "MEAN_MOTION_DOT": -0.02002548, "MEAN_MOTION_DDOT": 0}, "tle": {"line1": "1 66358U 25254L   25338.33335648 -.02002548  00000+0 -28426-1 0  9997", "line2": "2 66358  53.1592 316.8385 0001345  71.3539   1.2009 15.59337453  5574"}}, "geometry": {"type": "Point", "coordinates": [152.03584424977961, -21.5019654940116]}}, {"type": "Feature", "properties": {"norad_id": 66359, "name": "STARLINK-35805", "group": "last-30-days", "lat": -22.960196481617018, "lon": 153.37308747253056, "alt_km": 398.54037745655023, "timestamp": "2025-12-04T17:48:38.961847+00:00", "meta": {"OBJECT_NAME": "STARLINK-35805", "OBJECT_ID": "2025-254M", "EPOCH": "2025-12-04T08:00:01.999872", "MEAN_MOTION": 15.59341331, "ECCENTRICITY": 0.00011957, "INCLINATION": 53.1593, "RA_OF_ASC_NODE": 316.8352, "ARG_OF_PERICENTER": 75.4657, "MEAN_ANOMALY": 359.0052, "EPHEMERIS_TYPE": 0, "CLASSIFICATION_TYPE": "U", "NORAD_CAT_ID": 66359, "ELEMENT_SET_NO": 999, "REV_AT_EPOCH": 554, "BSTAR": -0.028521599, "MEAN_MOTION_DOT": -0.02008572, "MEAN_MOTION_DDOT": 0}, "tle": {"line1": "1 66359U 25254M   25338.33335648 -.02008572  00000+0 -28522-1 0  9998", "line2": "2 66359  53.1593 316.8352 0001195  75.4657 359.0052 15.59341331  5548"}}, "geometry": {"type": "Point", "coordinates": [153.37308747253056, -22.960196481617018]}}, {"type": "Feature", "properties": {"norad_id": 66360, "name": "STARLINK-35823", "group": "last-30-days", "lat": -25.84141735942955, "lon": 156.13584956354975, "alt_km": 398.83178309812865, "timestamp": "2025-12-04T17:48:38.961857+00:00", "meta": {"OBJECT_NAME": "STARLINK-35823", "OBJECT_ID": "2025-254N", "EPOCH": "2025-12-04T08:00:01.999872", "MEAN_MOTION": 15.59341926, "ECCENTRICITY": 0.0001213, "INCLINATION": 53.159, "RA_OF_ASC_NODE": 316.8263, "ARG_OF_PERICENTER": 73.8734, "MEAN_ANOMALY": 4.4311, "EPHEMERIS_TYPE": 0, "CLASSIFICATION_TYPE": "U", "NORAD_CAT_ID": 66360, "ELEMENT_SET_NO": 999, "REV_AT_EPOCH": 557, "BSTAR": -0.028530889, "MEAN_MOTION_DOT": -0.02009197, "MEAN_MOTION_DDOT": 0}, "tle": {"line1": "1 66360U 25254N   25338.33335648 -.02009197  00000+0 -28531-1 0  9994", "line2": "2 66360  53.1590 316.8263 0001213  73.8734   4.4311 15.59341926  5579"}}, "geometry": {"type": "Point", "coordinates": [156.13584956354975, -25.84141735942955]}}, {"type": "Feature", "properties": {"norad_id": 66361, "name": "STARLINK-35813", "group": "last-30-days", "lat": -24.40724582401424, "lon": 154.73929084755744, "alt_km": 398.6978193188206, "timestamp": "2025-12-04T17:48:38.961867+00:00", "meta": {"OBJECT_NAME": "STARLINK-35813", "OBJECT_ID": "2025-254P", "EPOCH": "2025-12-04T08:00:01.999872", "MEAN_MOTION": 15.59342121, "ECCENTRICITY": 0.00012172, "INCLINATION": 53.1592, "RA_OF_ASC_NODE": 316.8313, "ARG_OF_PERICENTER": 74.4652, "MEAN_ANOMALY": 1.9221, "EPHEMERIS_TYPE": 0, "CLASSIFICATION_TYPE": "U", "NORAD_CAT_ID": 66361, "ELEMENT_SET_NO": 999, "REV_AT_EPOCH": 557, "BSTAR": -0.028532881, "MEAN_MOTION_DOT": -0.02009336, "MEAN_MOTION_DDOT": 0}, "tle": {"line1": "1 66361U 25254P   25338.33335648 -.02009336  00000+0 -28533-1 0  9992", "line2": "2 66361  53.1592 316.8313 0001217  74.4652   1.9221 15.59342121  5578"}}, "geometry": {"type": "Point", "coordinates": [154.73929084755744, -24.40724582401424]}}, {"type": "Feature", "properties": {"norad_id": 66362, "name": "STARLINK-35822", "group": "last-30-days", "lat": -28.667168033254544, "lon": 159.0367155019037, "alt_km": 399.2421065538492, "timestamp": "2025-12-04T17:48:38.961878+00:00", "meta": {"OBJECT_NAME": "STARLINK-35822", "OBJECT_ID": "2025-254Q", "EPOCH": "2025-12-04T08:00:01.999872", "MEAN_MOTION": 15.5932611, "ECCENTRICITY": 0.00014671, "INCLINATION": 53.1591, "RA_OF_ASC_NODE": 316.819, "ARG_OF_PERICENTER": 71.4156, "MEAN_ANOMALY": 10.731, "EPHEMERIS_TYPE": 0, "CLASSIFICATION_TYPE": "U", "NORAD_CAT_ID": 66362, "ELEMENT_SET_NO": 999, "REV_AT_EPOCH": 557, "BSTAR": -0.028247394, "MEAN_MOTION_DOT": -0.01990829, "MEAN_MOTION_DDOT": 0}, "tle": {"line1": "1 66362U 25254Q   25338.33335648 -.01990829  00000+0 -28247-1 0  9990", "line2": "2 66362  53.1591 316.8190 0001467  71.4156  10.7310 15.59326110  5571"}}, "geometry": {"type": "Point", "coordinates": [159.0367155019037, -28.667168033254544]}}, {"type": "Feature", "properties": {"norad_id": 66363, "name": "STARLINK-35806", "group": "last-30-days", "lat": -27.261751241340125, "lon": 157.56801963765983, "alt_km": 399.0617728119814, "timestamp": "2025-12-04T17:48:38.961888+00:00", "meta": {"OBJECT_NAME": "STARLINK-35806", "OBJECT_ID": "2025-254R", "EPOCH": "2025-12-04T08:00:01.999872", "MEAN_MOTION": 15.5933707, "ECCENTRICITY": 0.00013619, "INCLINATION": 53.1589, "RA_OF_ASC_NODE": 316.8228, "ARG_OF_PERICENTER": 71.1018, "MEAN_ANOMALY": 9.1207, "EPHEMERIS_TYPE": 0, "CLASSIFICATION_TYPE": "U", "NORAD_CAT_ID": 66363, "ELEMENT_SET_NO": 999, "REV_AT_EPOCH": 554, "BSTAR": -0.028418182, "MEAN_MOTION_DOT": -0.0200203, "MEAN_MOTION_DDOT": 0}, "tle": {"line1": "1 66363U 25254R   25338.33335648 -.02002030  00000+0 -28418-1 0  9990", "line2": "2 66363  53.1589 316.8228 0001361  71.1018   9.1207 15.59337070  5549"}}, "geometry": {"type": "Point", "coordinates": [157.56801963765983, -27.261751241340125]}}, {"type": "Feature", "properties": {"norad_id": 66364, "name": "STARLINK-35797", "group": "last-30-days", "lat": -30.055789035454303, "lon": 160.54398248317528, "alt_km": 399.27858326678324, "timestamp": "2025-12-04T17:48:38.961898+00:00", "meta": {"OBJECT_NAME": "STARLINK-35797", "OBJECT_ID": "2025-254S", "EPOCH": "2025-12-04T08:00:01.999872", "MEAN_MOTION": 15.59337975, "ECCENTRICITY": 0.00013122, "INCLINATION": 53.1594, "RA_OF_ASC_NODE": 316.8146, "ARG_OF_PERICENTER": 69.6051, "MEAN_ANOMALY": 14.4514, "EPHEMERIS_TYPE": 0, "CLASSIFICATION_TYPE": "U", "NORAD_CAT_ID": 66364, "ELEMENT_SET_NO": 999, "REV_AT_EPOCH": 557, "BSTAR": -0.028438695, "MEAN_MOTION_DOT": -0.02003319, "MEAN_MOTION_DDOT": 0}, "tle": {"line1": "1 66364U 25254S   25338.33335648 -.02003319  00000+0 -28439-1 0  9995", "line2": "2 66364  53.1594 316.8146 0001312  69.6051  14.4514 15.59337975  5577"}}, "geometry": {"type": "Point", "coordinates": [160.54398248317528, -30.055789035454303]}}, {"type": "Feature", "properties": {"norad_id": 66365, "name": "STARLINK-35827", "group": "last-30-days", "lat": -32.77833792934606, "lon": 163.69209756198094, "alt_km": 399.5049733096939, "timestamp": "2025-12-04T17:48:38.961908+00:00", "meta": {"OBJECT_NAME": "STARLINK-35827", "OBJECT_ID": "2025-254T", "EPOCH": "2025-12-04T08:00:01.999872", "MEAN_MOTION": 15.59337195, "ECCENTRICITY": 0.00013801, "INCLINATION": 53.1594, "RA_OF_ASC_NODE": 316.8073, "ARG_OF_PERICENTER": 72.3213, "MEAN_ANOMALY": 15.5684, "EPHEMERIS_TYPE": 0, "CLASSIFICATION_TYPE": "U", "NORAD_CAT_ID": 66365, "ELEMENT_SET_NO": 999, "REV_AT_EPOCH": 554, "BSTAR": -0.028415725, "MEAN_MOTION_DOT": -0.020019, "MEAN_MOTION_DDOT": 0}, "tle": {"line1": "1 66365U 25254T   25338.33335648 -.02001900  00000+0 -28416-1 0  9995", "line2": "2 66365  53.1594 316.8073 0001380  72.3213  15.5684 15.59337195  5544"}}, "geometry": {"type": "Point", "coordinates": [163.69209756198094, -32.77833792934606]}}]}